SL-16 R/B               
1 25400U 98043G   25359.28767601  .00000068  00000+0  47442-4 0  9994
2 25400  98.8145 307.1771 0009006 226.1741 133.8695 14.26028226428385
SL-16 R/B               
1 25407U 98045B   25359.26690638  .00000302  00000+0  17660-3 0  9995
2 25407  71.0121 338.0816 0006209 155.7907 204.3509 14.16178163416565
ISS (ZARYA)             
1 25544U 98067A   25359.24512050  .00013923  00000+0  25323-3 0  9998
2 25544  51.6316  80.5467 0003202 298.8467  61.2200 15.49803499544797
CZ-4B R/B               
1 25732U 99025C   25359.09404432  .00000078  00000+0  58284-4 0  9999
2 25732  98.6752  40.0968 0036833 197.9167 216.6378 14.18246639377596
OKEAN-O                 
1 25860U 99039A   25359.16052166  .00000730  00000+0  10301-3 0  9999
2 25860  97.9585  54.7538 0001131 114.4209 245.7121 14.80181884423368
SL-16 R/B               
1 25861U 99039B   25359.14369187  .00000635  00000+0  87589-4 0  9999
2 25861  98.0109  53.2948 0015774 135.8951 224.3523 14.81603674425820
DELTA 2 R/B             
1 25876U 99041E   25359.10512946  .00001138  00000+0  22274-3 0  9995
2 25876  51.7604 239.0838 0504426 128.2080 236.5395 14.11433175352494
HELIOS 1B               
1 25977U 99064A   25359.24964254  .00001980  00000+0  22576-3 0  9990
2 25977  98.1754 254.2864 0001001  30.4227 329.7046 14.87330353674192
TERRA                   
1 25994U 99068A   25359.26878428  .00000476  00000+0  10627-3 0  9995
2 25994  97.9731  50.4924 0003420  69.5688 355.3320 14.60915446384211
SL-16 R/B               
1 26070U 00006B   25359.12166808  .00000138  00000+0  94246-4 0  9997
2 26070  71.0012 254.6236 0018591 291.8668  68.0477 14.15808884338003
TITAN 4B R/B            
1 26474U 00047B   25359.27192262  .00003785  00000+0  24415-3 0  9990
2 26474  67.9888 249.6573 0038045 129.1735 231.2804 15.08868752381681
ENVISAT                 
1 27386U 02009A   25352.94754304  .00000081  00000+0  39999-4 0  9991
2 27386  98.3609 303.5309 0001126  84.8976 298.2993 14.39001403247569
